CUTE-1 (CO-55)          
1 27844U 03031E   21044.45218713  .00000049  00000-0  41799-4 0  9991
2 27844  98.6823  54.5330 0010937  79.4869 280.7540 14.22287826914356
CUBESAT XI-IV (CO-57)   
1 27848U 03031J   21044.83082435  .00000030  00000-0  33198-4 0  9991
2 27848  98.6883  55.4740 0010853  90.2155 270.0266 14.21867684914270
CUBESAT XI-V            
1 28895U 05043F   21044.84574694  .00000136  00000-0  34908-4 0  9990
2 28895  98.0381 180.9345 0015746 237.1212 122.8476 14.63864217816157
CUTE-1.7+APD II (CO-65) 
1 32785U 08021C   21044.85828077  .00000266  00000-0  34112-4 0  9991
2 32785  97.5984  28.5978 0014274  56.7265 303.5318 14.88630780693856
AAUSAT-II               
1 32788U 08021F   21044.43958686  .00000162  00000-0  19633-4 0  9994
2 32788  97.4999  44.3494 0010999 333.4990  26.5667 14.95387186695323
DELFI-C3 (DO-64)        
1 32789U 08021G   21044.06124894  .00001267  00000-0  85081-4 0  9997
2 32789  97.3918  84.1583 0011361 202.9214 157.1509 15.08480946698072
SEEDS II (CO-66)        
1 32791U 08021J   21044.23637929  .00000473  00000-0  52816-4 0  9995
2 32791  97.5607  34.0223 0013903  26.3392 333.8531 14.91274227694265
SWISSCUBE               
1 35932U 09051B   21044.49403917  .00000128  00000-0  39744-4 0  9997
2 35932  98.6073 240.5588 0008629 105.9668 254.2480 14.56487277604915
BEESAT-1                
1 35933U 09051C   21044.25871500  .00000105  00000-0  34618-4 0  9999
2 35933  98.6050 242.1676 0006747 117.2241 242.9644 14.56551144604954
ITUPSAT1                
1 35935U 09051E   21044.80774855  .00000091  00000-0  32068-4 0  9998
2 35935  98.6154 242.8959 0009076 117.2920 242.9202 14.55688510604816
TISAT 1                 
1 36799U 10035E   21044.48807555  .00000227  00000-0  28775-4 0  9990
2 36799  98.2037 230.2835 0010946 259.0502 100.9484 14.91599089574851
M-CUBED & EXP-1 PRIME   
1 37855U 11061F   21044.17128857  .00001101  00000-0  60787-4 0  9992
2 37855 101.7256 263.1263 0168335  80.2050 281.8124 15.07187162507451
AEROCUBE 4.5A           
1 38767U 12048K   21044.84695425  .00000332  00000-0  42145-4 0  9998
2 38767  64.6652 201.4071 0139215  48.4279 312.8669 14.92581298 77820
AEROCUBE 4.5B           
1 38768U 12048L   21044.72366556  .00000475  00000-0  49764-4 0  9998
2 38768  64.6668 166.0014 0130517  42.8033 318.3153 14.96366568 77973
STRAND-1                
1 39090U 13009E   21044.51732771  .00000009  00000-0  18201-4 0  9993
2 39090  98.4363 249.5645 0008077 290.2615  69.7702 14.35168200417269
SOMP                    
1 39134U 13015E   21044.87432256  .00001949  00000-0  93855-4 0  9995
2 39134  64.8612 214.1694 0009397 221.5784 138.4630 15.21984736432788
BEESAT-3                
1 39135U 13015F   21044.81521192  .00001331  00000-0  72922-4 0  9995
2 39135  64.8645 241.5549 0012692 200.7317 159.3297 15.18907624432251
BEESAT-2                
1 39136U 13015G   21044.30085413  .00001116  00000-0  63509-4 0  9993
2 39136  64.8731 249.1046 0028081 260.1512  99.6443 15.18292196431664
NEE-01 PEGASO           
1 39151U 13018B   21044.72819743  .00000184  00000-0  31052-4 0  9992
2 39151  97.9746 147.9694 0017788  42.7088 317.5502 14.80284654421375
ESTCUBE 1               
1 39161U 13021C   21044.80631773  .00000098  00000-0  23152-4 0  9997
2 39161  97.9470 128.8053 0009222 181.0607 179.0563 14.72422610417555
POPACS 1                
1 39268U 13055D   21044.42337772  .00002994  00000-0  81194-4 0  9999
2 39268  81.0005  41.0261 0607312 225.3200 129.6973 14.41449721382682
POPACS 2                
1 39269U 13055E   21044.43320932  .00003137  00000-0  89327-4 0  9997
2 39269  81.0115  84.8047 0670957 338.8632  18.5966 14.27021257380338
POPACS 3                
1 39270U 13055F   21044.42322821  .00001968  00000-0  59257-4 0  9996
2 39270  81.0153 109.8945 0706502  50.4701 315.6764 14.17894424359265
ZACUBE-1 (TSHEPISOSAT)  
1 39417U 13066B   21044.84855610  .00000212  00000-0  32798-4 0  9996
2 39417  97.5826  35.6587 0058001 205.0787 154.7608 14.81426972390771
WNISAT-1                
1 39423U 13066H   21044.73075592  .00000057  00000-0  21401-4 0  9990
2 39423  97.8012 315.7268 0173935 222.9280 135.8247 14.53184467383462
TRITON-1                
1 39427U 13066M   21044.82526337  .00000304  00000-0  55975-4 0  9990
2 39427  97.7605 358.8105 0114221  26.8451 333.8603 14.68150206387274
GOMX-1                  
1 39430U 13066Q   21044.79245050  .00000126  00000-0  31468-4 0  9993
2 39430  97.8104 334.9941 0151309 143.9313 217.2217 14.59532730385003
CUBEBUG-2 (LO-74)       
1 39440U 13066AA  21044.81660137  .00000246  00000-0  41188-4 0  9997
2 39440  97.6611  20.3779 0078463 276.9231  82.3059 14.76161751389385
NEE-02 KRYSAOR          
1 39441U 13066AB  21044.38349003  .00000145  00000-0  27926-4 0  9998
2 39441  97.6701  17.3619 0080156 288.8395  70.4134 14.75123240387920
FUNCUBE-1 (AO-73)       
1 39444U 13066AE  21044.84008857  .00000269  00000-0  39072-4 0  9993
2 39444  97.5743  37.9857 0057312 196.0236 163.9168 14.82314453389712
UWE-3                   
1 39446U 13066AG  21044.86577855  .00000211  00000-0  34663-4 0  9994
2 39446  97.6237  27.4754 0068403 241.8097 117.6196 14.78695678388835
AEROCUBE 5A             
1 39465U 13072D   21044.50964100  .00004602  00000-0  36562-3 0  9993
2 39465 120.4957 317.9095 0262297 130.5832 231.8361 14.79482155 76992
AEROCUBE 5B             
1 39466U 13072E   21044.44053536  .00006977  00000-0  45222-3 0  9999
2 39466 120.4691   7.7759 0233023 141.2816 220.5194 14.89851081 77433
BRITE-CA1 (TORONTO)     
1 40020U 14033L   21044.71671672  .00000130  00000-0  30292-4 0  9999
2 40020  97.7326 225.1643 0087835  23.6200 336.9000 14.66706689356120
DUCHIFAT-1              
1 40021U 14033M   21044.26888648  .00000310  00000-0  37099-4 0  9995
2 40021  97.9627 343.2409 0011920 208.4994 151.5574 14.91178160361773
NANOSATC-BR1            
1 40024U 14033Q   21044.29464939  .00000452  00000-0  52375-4 0  9995
2 40024  97.9437 338.8091 0011198 213.9017 146.1485 14.90302495361103
QB50P1                  
1 40025U 14033R   21044.46691010  .00000301  00000-0  37732-4 0  9990
2 40025  97.9279 334.8870 0011311 222.0152 138.0198 14.89327779360961
QB50P2                  
1 40032U 14033Y   21044.79536279  .00000323  00000-0  40446-4 0  9999
2 40032  97.9134 332.1173 0010796 217.5828 142.4635 14.88844066361419
PERSEUS-M2              
1 40037U 14033AD  21044.76951348  .00000121  00000-0  19881-4 0  9994
2 40037  97.8913 325.2889 0013104 238.3086 121.6852 14.86625904361010
PERSEUS-M1              
1 40039U 14033AF  21044.77328599  .00000102  00000-0  17799-4 0  9998
2 40039  97.8861 323.7942 0012977 236.5084 123.4892 14.86246687360922
POLYITAN-1              
1 40042U 14033AJ  21044.77072531  .00000430  00000-0  51558-4 0  9999
2 40042  97.9367 335.8944 0013662 212.2132 147.8252 14.89112781361416
TIGRISAT                
1 40043U 14033AK  21044.40742503  .00000134  00000-0  27032-4 0  9994
2 40043  97.6837 254.6522 0058626 300.3431  59.1988 14.74477830357550
AEROCUBE 6A             
1 40045U 14033AM  21044.54097539  .00000237  00000-0  41068-4 0  9992
2 40045  97.7086 261.4493 0056590 290.1555  69.3574 14.75735011357668
AEROCUBE 6B             
1 40046U 14033AN  21044.82198007  .00000326  00000-0  53764-4 0  9991
2 40046  97.6984 260.7043 0055537 288.1240  71.3927 14.75744880358082
UKUBE-1                 
1 40074U 14037F   21044.82952604  .00000324  00000-0  45605-4 0  9990
2 40074  98.4413 253.4480 0005451  64.6945 295.4818 14.84453409357566
BRITE-PL2 (HEWELIUSZ)   
1 40119U 14049B   21044.48344292  .00000102  00000-0  18427-4 0  9999
2 40119  97.8885 140.2943 0018290  45.0428 315.2266 14.84599699351455
FIREBIRD 4              
1 40378U 15003C   21044.80235489  .00004154  00000-0  15625-3 0  9997
2 40378  99.0836 160.5076 0119679 226.6447 132.4765 15.21453516333996
GRIFEX                  
1 40379U 15003D   21044.85558410  .00002101  00000-0  89510-4 0  9990
2 40379  99.0830 150.9152 0129256 256.5507 102.1290 15.17356662333446
CP10 (EXOCUBE)          
1 40380U 15003E   21044.79901671  .00001303  00000-0  60296-4 0  9999
2 40380  99.0866 145.7570 0134587 274.3556  84.2304 15.15147298333096
AEROCUBE 8A             
1 40659U 15025J   21044.81089739  .00039647  00000-0  29152-3 0  9994
2 40659  55.0096 248.5896 0083072  87.9841 273.0711 15.68098994 81267
AEROCUBE 8B             
1 40660U 15025K   21044.84514768  .00041616  00000-0  29888-3 0  9999
2 40660  55.0065 245.5139 0081664  90.6317 270.4082 15.68754985 81290
TIANWANG 1C (TW-1C)     
1 40926U 15051B   21044.69204454  .00290318  37252-4  55900-3 0  9996
2 40926  97.0377 106.8743 0004396 219.6048 263.0780 16.00457710305002
TIANWANG 1A (TW-1A)     
1 40928U 15051D   21044.91354231  .00002958  00000-0  65537-4 0  9998
2 40928  97.0893  72.8117 0010801  35.5708  84.9820 15.44500481302610
EXACTVIEW 9             
1 40936U 15052G   21044.49989371  .00000795  00000-0  22048-4 0  9997
2 40936   6.0042  61.3841 0009965  74.0654 286.0572 14.76652743290842
AEROCUBE 5C             
1 40965U 15058B   21044.66528809  .00000080  00000-0  28097-4 0  9996
2 40965  64.7775 133.2701 0192299 349.3723  10.3340 14.74666429 76870
AEROCUBE 7              
1 40966U 15058C   21044.66202573  .00000149  00000-0  35576-4 0  9990
2 40966  64.7776 131.4051 0191255 349.0235  10.6720 14.74999343 76886
ATHENOXAT 1             
1 41168U 15077C   21044.80548343  .00002269  00000-0  81102-4 0  9991
2 41168  14.9915  89.7359 0011008 252.1271 254.6012 15.15172484285993
GALASSIA                
1 41170U 15077E   21044.71592435  .00002417  00000-0  87876-4 0  9994
2 41170  14.9894  81.4344 0012252 276.9909  82.9019 15.15435873286050
VELOX-II                
1 41171U 15077F   21044.57973644  .00001824  00000-0  64578-4 0  9999
2 41171  14.9908 135.3843 0008547 154.1809 205.8939 15.12214715285534
